[{"OBJECT_NAME":"SHIYAN-28B 01","OBJECT_ID":"2025-145A","EPOCH":"2026-03-08T20:29:47.684832","MEAN_MOTION":14.29356521,"ECCENTRICITY":0.00033669,"INCLINATION":10.9981,"RA_OF_ASC_NODE":260.401,"ARG_OF_PERICENTER":306.4747,"MEAN_ANOMALY":53.517,"EPHEMERIS_TYPE":0,"CLASSIFICATION_TYPE":"U","NORAD_CAT_ID":64753,"ELEMENT_SET_NO":999,"REV_AT_EPOCH":3553,"BSTAR":0.00013091269,"MEAN_MOTION_DOT":7.71e-6,"MEAN_MOTION_DDOT":0},{"OBJECT_NAME":"CZ-6A DEB","OBJECT_ID":"2024-140KZ","EPOCH":"2026-03-09T14:10:35.524416","MEAN_MOTION":14.14315589,"ECCENTRICITY":0.0075137,"INCLINATION":89.0511,"RA_OF_ASC_NODE":290.248,"ARG_OF_PERICENTER":182.8898,"MEAN_ANOMALY":177.1866,"EPHEMERIS_TYPE":0,"CLASSIFICATION_TYPE":"U","NORAD_CAT_ID":60894,"ELEMENT_SET_NO":999,"REV_AT_EPOCH":8023,"BSTAR":0.00040638,"MEAN_MOTION_DOT":8.11e-6,"MEAN_MOTION_DDOT":0}]
